{"type": "FeatureCollection", "features": [ {"type": "Feature", "properties": {"norad_id": 67121, "name": "STARLINK-36124", "group": "last-30-days", "lat": 40.666707847672185, "lon": -53.82587178218464, "alt_km": 315.69809645912665, "timestamp": "2025-12-25T09:48:51.008997+00:00", "meta": {"OBJECT_NAME": "STARLINK-36124", "OBJECT_ID": "2025-299V", "EPOCH": "2025-12-25T04:00:01.998720", "MEAN_MOTION": 15.84270725, "ECCENTRICITY": 0.0001533, "INCLINATION": 42.9972, "RA_OF_ASC_NODE": 240.4331, "ARG_OF_PERICENTER": 275.4838, "MEAN_ANOMALY": 214.6174, "EPHEMERIS_TYPE": 0, "CLASSIFICATION_TYPE": "U", "NORAD_CAT_ID": 67121, "ELEMENT_SET_NO": 999, "REV_AT_EPOCH": 280, "BSTAR": -0.008459, "MEAN_MOTION_DOT": -0.0171672, "MEAN_MOTION_DDOT": 0}, "tle": {"line1": "1 67121U 25299V   25359.16668980 -.01716720  00000+0 -84590-2 0  9995", "line2": "2 67121  42.9972 240.4331 0001533 275.4838 214.6174 15.84270725  2804"}}, "geometry": {"type": "Point", "coordinates": [-53.82587178218464, 40.666707847672185]}}, {"type": "Feature", "properties": {"norad_id": 67122, "name": "STARLINK-36188", "group": "last-30-days", "lat": 41.049232871911464, "lon": -51.89764030218323, "alt_km": 315.6520650071743, "timestamp": "2025-12-25T09:48:51.009007+00:00", "meta": {"OBJECT_NAME": "STARLINK-36188", "OBJECT_ID": "2025-299W", "EPOCH": "2025-12-25T04:00:01.998720", "MEAN_MOTION": 15.84281469, "ECCENTRICITY": 0.0001562, "INCLINATION": 42.9973, "RA_OF_ASC_NODE": 240.4295, "ARG_OF_PERICENTER": 273.4955, "MEAN_ANOMALY": 218.105, "EPHEMERIS_TYPE": 0, "CLASSIFICATION_TYPE": "U", "NORAD_CAT_ID": 67122, "ELEMENT_SET_NO": 999, "REV_AT_EPOCH": 280, "BSTAR": -0.0084411, "MEAN_MOTION_DOT": -0.01714385, "MEAN_MOTION_DDOT": 0}, "tle": {"line1": "1 67122U 25299W   25359.16668980 -.01714385  00000+0 -84411-2 0  9993", "line2": "2 67122  42.9973 240.4295 0001562 273.4955 218.1050 15.84281469  2804"}}, "geometry": {"type": "Point", "coordinates": [-51.89764030218323, 41.049232871911464]}}, {"type": "Feature", "properties": {"norad_id": 67123, "name": "STARLINK-36151", "group": "last-30-days", "lat": 40.17934847372267, "lon": -56.0521546645783, "alt_km": 315.7737128009785, "timestamp": "2025-12-25T09:48:51.009019+00:00", "meta": {"OBJECT_NAME": "STARLINK-36151", "OBJECT_ID": "2025-299X", "EPOCH": "2025-12-25T04:00:01.998720", "MEAN_MOTION": 15.84269096, "ECCENTRICITY": 0.000158, "INCLINATION": 42.9976, "RA_OF_ASC_NODE": 240.4378, "ARG_OF_PERICENTER": 277.9256, "MEAN_ANOMALY": 210.4121, "EPHEMERIS_TYPE": 0, "CLASSIFICATION_TYPE": "U", "NORAD_CAT_ID": 67123, "ELEMENT_SET_NO": 999, "REV_AT_EPOCH": 280, "BSTAR": -0.0084842, "MEAN_MOTION_DOT": -0.01721045, "MEAN_MOTION_DDOT": 0}, "tle": {"line1": "1 67123U 25299X   25359.16668980 -.01721045  00000+0 -84842-2 0  9993", "line2": "2 67123  42.9976 240.4378 0001580 277.9256 210.4121 15.84269096  2809"}}, "geometry": {"type": "Point", "coordinates": [-56.0521546645783, 40.17934847372267]}}, {"type": "Feature", "properties": {"norad_id": 67124, "name": "STARLINK-36195", "group": "last-30-days", "lat": 41.43425033640095, "lon": -49.74120029844643, "alt_km": 315.5422278007618, "timestamp": "2025-12-25T09:48:51.009031+00:00", "meta": {"OBJECT_NAME": "STARLINK-36195", "OBJECT_ID": "2025-299Y", "EPOCH": "2025-12-25T04:00:01.998720", "MEAN_MOTION": 15.84291406, "ECCENTRICITY": 0.0001479, "INCLINATION": 42.9976, "RA_OF_ASC_NODE": 240.4255, "ARG_OF_PERICENTER": 271.3931, "MEAN_ANOMALY": 221.8682, "EPHEMERIS_TYPE": 0, "CLASSIFICATION_TYPE": "U", "NORAD_CAT_ID": 67124, "ELEMENT_SET_NO": 999, "REV_AT_EPOCH": 280, "BSTAR": -0.0084513, "MEAN_MOTION_DOT": -0.01716798, "MEAN_MOTION_DDOT": 0}, "tle": {"line1": "1 67124U 25299Y   25359.16668980 -.01716798  00000+0 -84513-2 0  9998", "line2": "2 67124  42.9976 240.4255 0001479 271.3931 221.8682 15.84291406  2807"}}, "geometry": {"type": "Point", "coordinates": [-49.74120029844643, 41.43425033640095]}}, {"type": "Feature", "properties": {"norad_id": 67125, "name": "STARLINK-36219", "group": "last-30-days", "lat": 41.76056205887002, "lon": -47.67758897745314, "alt_km": 315.500305013019, "timestamp": "2025-12-25T09:48:51.009047+00:00", "meta": {"OBJECT_NAME": "STARLINK-36219", "OBJECT_ID": "2025-299Z", "EPOCH": "2025-12-25T04:00:01.998720", "MEAN_MOTION": 15.84307481, "ECCENTRICITY": 0.0001612, "INCLINATION": 42.9973, "RA_OF_ASC_NODE": 240.421, "ARG_OF_PERICENTER": 278.2543, "MEAN_ANOMALY": 216.5704, "EPHEMERIS_TYPE": 0, "CLASSIFICATION_TYPE": "U", "NORAD_CAT_ID": 67125, "ELEMENT_SET_NO": 999, "REV_AT_EPOCH": 280, "BSTAR": -0.0084766, "MEAN_MOTION_DOT": -0.01722518, "MEAN_MOTION_DDOT": 0}, "tle": {"line1": "1 67125U 25299Z   25359.16668980 -.01722518  00000+0 -84766-2 0  9996", "line2": "2 67125  42.9973 240.4210 0001612 278.2543 216.5704 15.84307481  2807"}}, "geometry": {"type": "Point", "coordinates": [-47.67758897745314, 41.76056205887002]}}, {"type": "Feature", "properties": {"norad_id": 67126, "name": "STARLINK-36223", "group": "last-30-days", "lat": 42.0966385690173, "lon": -45.22581311356998, "alt_km": 315.4607141135002, "timestamp": "2025-12-25T09:48:51.009057+00:00", "meta": {"OBJECT_NAME": "STARLINK-36223", "OBJECT_ID": "2025-299AA", "EPOCH": "2025-12-25T04:00:01.998720", "MEAN_MOTION": 15.8430153, "ECCENTRICITY": 0.0001531, "INCLINATION": 42.9974, "RA_OF_ASC_NODE": 240.4164, "ARG_OF_PERICENTER": 271.2304, "MEAN_ANOMALY": 225.4563, "EPHEMERIS_TYPE": 0, "CLASSIFICATION_TYPE": "U", "NORAD_CAT_ID": 67126, "ELEMENT_SET_NO": 999, "REV_AT_EPOCH": 280, "BSTAR": -0.0084329, "MEAN_MOTION_DOT": -0.01714363, "MEAN_MOTION_DDOT": 0}, "tle": {"line1": "1 67126U 25299AA  25359.16668980 -.01714363  00000+0 -84329-2 0  9991", "line2": "2 67126  42.9974 240.4164 0001531 271.2304 225.4563 15.84301530  2806"}}, "geometry": {"type": "Point", "coordinates": [-45.22581311356998, 42.0966385690173]}}, {"type": "Feature", "properties": {"norad_id": 67127, "name": "STARLINK-36164", "group": "last-30-days", "lat": 42.35741515687573, "lon": -42.9624468922142, "alt_km": 315.3259131398727, "timestamp": "2025-12-25T09:48:51.009067+00:00", "meta": {"OBJECT_NAME": "STARLINK-36164", "OBJECT_ID": "2025-299AB", "EPOCH": "2025-12-25T04:00:01.998720", "MEAN_MOTION": 15.84317796, "ECCENTRICITY": 0.0001418, "INCLINATION": 42.9972, "RA_OF_ASC_NODE": 240.4121, "ARG_OF_PERICENTER": 270.4318, "MEAN_ANOMALY": 227.9409, "EPHEMERIS_TYPE": 0, "CLASSIFICATION_TYPE": "U", "NORAD_CAT_ID": 67127, "ELEMENT_SET_NO": 999, "REV_AT_EPOCH": 280, "BSTAR": -0.0084726, "MEAN_MOTION_DOT": -0.01722357, "MEAN_MOTION_DDOT": 0}, "tle": {"line1": "1 67127U 25299AB  25359.16668980 -.01722357  00000+0 -84726-2 0  9995", "line2": "2 67127  42.9972 240.4121 0001418 270.4318 227.9409 15.84317796  2805"}}, "geometry": {"type": "Point", "coordinates": [-42.9624468922142, 42.35741515687573]}}, {"type": "Feature", "properties": {"norad_id": 67128, "name": "STARLINK-35685", "group": "last-30-days", "lat": 42.84091319792708, "lon": -36.65595517207775, "alt_km": 315.3985034383504, "timestamp": "2025-12-25T09:48:51.009077+00:00", "meta": {"OBJECT_NAME": "STARLINK-35685", "OBJECT_ID": "2025-299AC", "EPOCH": "2025-12-25T04:00:01.998720", "MEAN_MOTION": 15.84286092, "ECCENTRICITY": 0.0001503, "INCLINATION": 42.997, "RA_OF_ASC_NODE": 240.4, "ARG_OF_PERICENTER": 271.066, "MEAN_ANOMALY": 232.0022, "EPHEMERIS_TYPE": 0, "CLASSIFICATION_TYPE": "U", "NORAD_CAT_ID": 67128, "ELEMENT_SET_NO": 999, "REV_AT_EPOCH": 280, "BSTAR": -0.0084464, "MEAN_MOTION_DOT": -0.01715595, "MEAN_MOTION_DDOT": 0}, "tle": {"line1": "1 67128U 25299AC  25359.16668980 -.01715595  00000+0 -84464-2 0  9991", "line2": "2 67128  42.9970 240.4000 0001503 271.0660 232.0022 15.84286092  2804"}}, "geometry": {"type": "Point", "coordinates": [-36.65595517207775, 42.84091319792708]}}, {"type": "Feature", "properties": {"norad_id": 67129, "name": "STARLINK-36214", "group": "last-30-days", "lat": 42.60240882694288, "lon": -40.33135855359731, "alt_km": 315.30209782297334, "timestamp": "2025-12-25T09:48:51.009087+00:00", "meta": {"OBJECT_NAME": "STARLINK-36214", "OBJECT_ID": "2025-299AD", "EPOCH": "2025-12-25T04:00:01.998720", "MEAN_MOTION": 15.84311577, "ECCENTRICITY": 0.0001451, "INCLINATION": 42.9972, "RA_OF_ASC_NODE": 240.4069, "ARG_OF_PERICENTER": 275.3068, "MEAN_ANOMALY": 225.0254, "EPHEMERIS_TYPE": 0, "CLASSIFICATION_TYPE": "U", "NORAD_CAT_ID": 67129, "ELEMENT_SET_NO": 999, "REV_AT_EPOCH": 280, "BSTAR": -0.008442, "MEAN_MOTION_DOT": -0.01716591, "MEAN_MOTION_DDOT": 0}, "tle": {"line1": "1 67129U 25299AD  25359.16668980 -.01716591  00000+0 -84420-2 0  9991", "line2": "2 67129  42.9972 240.4069 0001451 275.3068 225.0254 15.84311577  2809"}}, "geometry": {"type": "Point", "coordinates": [-40.33135855359731, 42.60240882694288]}}, {"type": "Feature", "properties": {"norad_id": 67130, "name": "STARLINK-36194", "group": "last-30-days", "lat": 42.97304519452992, "lon": -30.250610150721023, "alt_km": 315.67495634565967, "timestamp": "2025-12-25T09:48:51.009097+00:00", "meta": {"OBJECT_NAME": "STARLINK-36194", "OBJECT_ID": "2025-299AE", "EPOCH": "2025-12-25T04:00:01.998720", "MEAN_MOTION": 15.84200935, "ECCENTRICITY": 0.0001588, "INCLINATION": 42.9972, "RA_OF_ASC_NODE": 240.3897, "ARG_OF_PERICENTER": 281.6613, "MEAN_ANOMALY": 226.1756, "EPHEMERIS_TYPE": 0, "CLASSIFICATION_TYPE": "U", "NORAD_CAT_ID": 67130, "ELEMENT_SET_NO": 999, "REV_AT_EPOCH": 280, "BSTAR": -0.0085569, "MEAN_MOTION_DOT": -0.01728789, "MEAN_MOTION_DDOT": 0}, "tle": {"line1": "1 67130U 25299AE  25359.16668980 -.01728789  00000+0 -85569-2 0  9990", "line2": "2 67130  42.9972 240.3897 0001588 281.6613 226.1756 15.84200935  2800"}}, "geometry": {"type": "Point", "coordinates": [-30.250610150721023, 42.97304519452992]}}]}